{"type": "FeatureCollection", "features": [ {"type": "Feature", "properties": {"norad_id": 57401, "name": "TIANMU-1 09", "group": "weather", "lat": 8.406255812088594, "lon": 34.56904588764925, "alt_km": 482.3470381451516, "timestamp": "2025-12-12T11:38:31.059532+00:00", "meta": {"OBJECT_NAME": "TIANMU-1 09", "OBJECT_ID": "2023-101C", "EPOCH": "2025-12-12T03:44:48.833664", "MEAN_MOTION": 15.28071414, "ECCENTRICITY": 0.0006783, "INCLINATION": 97.2825, "RA_OF_ASC_NODE": 35.3304, "ARG_OF_PERICENTER": 85.4927, "MEAN_ANOMALY": 274.7088, "EPHEMERIS_TYPE": 0, "CLASSIFICATION_TYPE": "U", "NORAD_CAT_ID": 57401, "ELEMENT_SET_NO": 999, "REV_AT_EPOCH": 13306, "BSTAR": 0.00043377, "MEAN_MOTION_DOT": 0.00011816, "MEAN_MOTION_DDOT": 0}, "tle": {"line1": "1 57401U 23101C   25346.15612076  .00011816  00000+0  43377-3 0  9995", "line2": "2 57401  97.2825  35.3304 0006783  85.4927 274.7088 15.28071414133061"}}, "geometry": {"type": "Point", "coordinates": [34.56904588764925, 8.406255812088594]}}, {"type": "Feature", "properties": {"norad_id": 57402, "name": "TIANMU-1 10", "group": "weather", "lat": -0.8235826348796227, "lon": -143.60406517572622, "alt_km": 485.47376944481584, "timestamp": "2025-12-12T11:38:31.059542+00:00", "meta": {"OBJECT_NAME": "TIANMU-1 10", "OBJECT_ID": "2023-101D", "EPOCH": "2025-12-12T04:34:04.636416", "MEAN_MOTION": 15.28063659, "ECCENTRICITY": 0.0008557, "INCLINATION": 97.2906, "RA_OF_ASC_NODE": 36.213, "ARG_OF_PERICENTER": 85.043, "MEAN_ANOMALY": 275.1786, "EPHEMERIS_TYPE": 0, "CLASSIFICATION_TYPE": "U", "NORAD_CAT_ID": 57402, "ELEMENT_SET_NO": 999, "REV_AT_EPOCH": 13306, "BSTAR": 0.00041306, "MEAN_MOTION_DOT": 0.00011249, "MEAN_MOTION_DDOT": 0}, "tle": {"line1": "1 57402U 23101D   25346.19033144  .00011249  00000+0  41306-3 0  9993", "line2": "2 57402  97.2906  36.2130 0008557  85.0430 275.1786 15.28063659133067"}}, "geometry": {"type": "Point", "coordinates": [-143.60406517572622, -0.8235826348796227]}}, {"type": "Feature", "properties": {"norad_id": 57490, "name": "FENGYUN 3F", "group": "weather", "lat": 0.5812550633491609, "lon": -125.12833012308052, "alt_km": 828.4598808576438, "timestamp": "2025-12-12T11:38:31.059553+00:00", "meta": {"OBJECT_NAME": "FENGYUN 3F", "OBJECT_ID": "2023-111A", "EPOCH": "2025-12-12T04:02:07.466208", "MEAN_MOTION": 14.1989336, "ECCENTRICITY": 6.77e-05, "INCLINATION": 98.7084, "RA_OF_ASC_NODE": 54.4708, "ARG_OF_PERICENTER": 100.9945, "MEAN_ANOMALY": 259.1308, "EPHEMERIS_TYPE": 0, "CLASSIFICATION_TYPE": "U", "NORAD_CAT_ID": 57490, "ELEMENT_SET_NO": 999, "REV_AT_EPOCH": 12232, "BSTAR": 8.5128e-05, "MEAN_MOTION_DOT": 1.37e-06, "MEAN_MOTION_DDOT": 0}, "tle": {"line1": "1 57490U 23111A   25346.16814197  .00000137  00000+0  85128-4 0  9998", "line2": "2 57490  98.7084  54.4708 0000677 100.9945 259.1308 14.19893360122321"}}, "geometry": {"type": "Point", "coordinates": [-125.12833012308052, 0.5812550633491609]}}, {"type": "Feature", "properties": {"norad_id": 58584, "name": "ARKTIKA-M 2", "group": "weather", "lat": 59.60156947697379, "lon": -125.6682051950446, "alt_km": 36019.23612458227, "timestamp": "2025-12-12T11:38:31.059564+00:00", "meta": {"OBJECT_NAME": "ARKTIKA-M 2", "OBJECT_ID": "2023-198A", "EPOCH": "2025-12-08T20:10:13.977120", "MEAN_MOTION": 2.0060476, "ECCENTRICITY": 0.68646991, "INCLINATION": 63.2247, "RA_OF_ASC_NODE": 175.3152, "ARG_OF_PERICENTER": 268.1185, "MEAN_ANOMALY": 18.8267, "EPHEMERIS_TYPE": 0, "CLASSIFICATION_TYPE": "U", "NORAD_CAT_ID": 58584, "ELEMENT_SET_NO": 999, "REV_AT_EPOCH": 1450, "BSTAR": 0, "MEAN_MOTION_DOT": 1.66e-06, "MEAN_MOTION_DDOT": 0}, "tle": {"line1": "1 58584U 23198A   25342.84043955  .00000166  00000+0  00000+0 0  9998", "line2": "2 58584  63.2247 175.3152 6864699 268.1185  18.8267  2.00604760 14506"}}, "geometry": {"type": "Point", "coordinates": [-125.6682051950446, 59.60156947697379]}}, {"type": "Feature", "properties": {"norad_id": 58645, "name": "TIANMU-1 11", "group": "weather", "lat": 2.8339580074784134, "lon": 5.746191526946737, "alt_km": 491.29585199598296, "timestamp": "2025-12-12T11:38:31.059578+00:00", "meta": {"OBJECT_NAME": "TIANMU-1 11", "OBJECT_ID": "2023-205A", "EPOCH": "2025-12-12T03:45:12.464064", "MEAN_MOTION": 15.24588503, "ECCENTRICITY": 0.0007962, "INCLINATION": 97.3612, "RA_OF_ASC_NODE": 5.7899, "ARG_OF_PERICENTER": 312.8781, "MEAN_ANOMALY": 47.1788, "EPHEMERIS_TYPE": 0, "CLASSIFICATION_TYPE": "U", "NORAD_CAT_ID": 58645, "ELEMENT_SET_NO": 999, "REV_AT_EPOCH": 10900, "BSTAR": 0.00039774, "MEAN_MOTION_DOT": 9.745e-05, "MEAN_MOTION_DDOT": 0}, "tle": {"line1": "1 58645U 23205A   25346.15639426  .00009745  00000+0  39774-3 0  9993", "line2": "2 58645  97.3612   5.7899 0007962 312.8781  47.1788 15.24588503109006"}}, "geometry": {"type": "Point", "coordinates": [5.746191526946737, 2.8339580074784134]}}, {"type": "Feature", "properties": {"norad_id": 58646, "name": "TIANMU-1 12", "group": "weather", "lat": -34.93798577860953, "lon": -179.26248040076655, "alt_km": 497.8197861762492, "timestamp": "2025-12-12T11:38:31.059588+00:00", "meta": {"OBJECT_NAME": "TIANMU-1 12", "OBJECT_ID": "2023-205B", "EPOCH": "2025-12-12T04:23:56.803776", "MEAN_MOTION": 15.24471974, "ECCENTRICITY": 0.0005857, "INCLINATION": 97.36, "RA_OF_ASC_NODE": 5.6219, "ARG_OF_PERICENTER": 293.8069, "MEAN_ANOMALY": 66.2554, "EPHEMERIS_TYPE": 0, "CLASSIFICATION_TYPE": "U", "NORAD_CAT_ID": 58646, "ELEMENT_SET_NO": 999, "REV_AT_EPOCH": 10899, "BSTAR": 0.00038702, "MEAN_MOTION_DOT": 9.444e-05, "MEAN_MOTION_DDOT": 0}, "tle": {"line1": "1 58646U 23205B   25346.18329634  .00009444  00000+0  38702-3 0  9990", "line2": "2 58646  97.3600   5.6219 0005857 293.8069  66.2554 15.24471974108990"}}, "geometry": {"type": "Point", "coordinates": [-179.26248040076655, -34.93798577860953]}}, {"type": "Feature", "properties": {"norad_id": 58647, "name": "TIANMU-1 13", "group": "weather", "lat": 30.855696281851138, "lon": 1.6885341442277828, "alt_km": 492.8913358972168, "timestamp": "2025-12-12T11:38:31.059599+00:00", "meta": {"OBJECT_NAME": "TIANMU-1 13", "OBJECT_ID": "2023-205C", "EPOCH": "2025-12-12T03:37:45.645600", "MEAN_MOTION": 15.24513447, "ECCENTRICITY": 0.000606, "INCLINATION": 97.3627, "RA_OF_ASC_NODE": 5.7911, "ARG_OF_PERICENTER": 269.7688, "MEAN_ANOMALY": 90.2855, "EPHEMERIS_TYPE": 0, "CLASSIFICATION_TYPE": "U", "NORAD_CAT_ID": 58647, "ELEMENT_SET_NO": 999, "REV_AT_EPOCH": 10898, "BSTAR": 0.0004057, "MEAN_MOTION_DOT": 9.916e-05, "MEAN_MOTION_DDOT": 0}, "tle": {"line1": "1 58647U 23205C   25346.15122275  .00009916  00000+0  40570-3 0  9990", "line2": "2 58647  97.3627   5.7911 0006060 269.7688  90.2855 15.24513447108988"}}, "geometry": {"type": "Point", "coordinates": [1.6885341442277828, 30.855696281851138]}}, {"type": "Feature", "properties": {"norad_id": 58648, "name": "TIANMU-1 14", "group": "weather", "lat": 56.99579423020262, "lon": -163.0593155760287, "alt_km": 491.00005039878397, "timestamp": "2025-12-12T11:38:31.059608+00:00", "meta": {"OBJECT_NAME": "TIANMU-1 14", "OBJECT_ID": "2023-205D", "EPOCH": "2025-12-12T04:48:21.849696", "MEAN_MOTION": 15.24498722, "ECCENTRICITY": 0.0006854, "INCLINATION": 97.356, "RA_OF_ASC_NODE": 5.1885, "ARG_OF_PERICENTER": 275.0598, "MEAN_ANOMALY": 84.9857, "EPHEMERIS_TYPE": 0, "CLASSIFICATION_TYPE": "U", "NORAD_CAT_ID": 58648, "ELEMENT_SET_NO": 999, "REV_AT_EPOCH": 10899, "BSTAR": 0.00041097, "MEAN_MOTION_DOT": 0.00010043, "MEAN_MOTION_DDOT": 0}, "tle": {"line1": "1 58648U 23205D   25346.20025289  .00010043  00000+0  41097-3 0  9992", "line2": "2 58648  97.3560   5.1885 0006854 275.0598  84.9857 15.24498722108991"}}, "geometry": {"type": "Point", "coordinates": [-163.0593155760287, 56.99579423020262]}}, {"type": "Feature", "properties": {"norad_id": 58660, "name": "TIANMU-1 19", "group": "weather", "lat": 13.895593442051851, "lon": 95.67009531242543, "alt_km": 484.76900345001286, "timestamp": "2025-12-12T11:38:31.059618+00:00", "meta": {"OBJECT_NAME": "TIANMU-1 19", "OBJECT_ID": "2023-208A", "EPOCH": "2025-12-12T05:17:36.048768", "MEAN_MOTION": 15.27835386, "ECCENTRICITY": 0.0004085, "INCLINATION": 97.4384, "RA_OF_ASC_NODE": 97.2584, "ARG_OF_PERICENTER": 255.3869, "MEAN_ANOMALY": 104.6918, "EPHEMERIS_TYPE": 0, "CLASSIFICATION_TYPE": "U", "NORAD_CAT_ID": 58660, "ELEMENT_SET_NO": 999, "REV_AT_EPOCH": 10874, "BSTAR": 0.00050195, "MEAN_MOTION_DOT": 0.00013582, "MEAN_MOTION_DDOT": 0}, "tle": {"line1": "1 58660U 23208A   25346.22055612  .00013582  00000+0  50195-3 0  9994", "line2": "2 58660  97.4384  97.2584 0004085 255.3869 104.6918 15.27835386108749"}}, "geometry": {"type": "Point", "coordinates": [95.67009531242543, 13.895593442051851]}}, {"type": "Feature", "properties": {"norad_id": 58661, "name": "TIANMU-1 20", "group": "weather", "lat": 82.06659113538777, "lon": 28.458190803592686, "alt_km": 475.5886284627777, "timestamp": "2025-12-12T11:38:31.059628+00:00", "meta": {"OBJECT_NAME": "TIANMU-1 20", "OBJECT_ID": "2023-208B", "EPOCH": "2025-12-12T03:24:30.266208", "MEAN_MOTION": 15.29022987, "ECCENTRICITY": 0.0006325, "INCLINATION": 97.4322, "RA_OF_ASC_NODE": 97.6271, "ARG_OF_PERICENTER": 268.5681, "MEAN_ANOMALY": 91.4835, "EPHEMERIS_TYPE": 0, "CLASSIFICATION_TYPE": "U", "NORAD_CAT_ID": 58661, "ELEMENT_SET_NO": 999, "REV_AT_EPOCH": 10880, "BSTAR": 0.00049523, "MEAN_MOTION_DOT": 0.00013899, "MEAN_MOTION_DDOT": 0}, "tle": {"line1": "1 58661U 23208B   25346.14201697  .00013899  00000+0  49523-3 0  9996", "line2": "2 58661  97.4322  97.6271 0006325 268.5681  91.4835 15.29022987108801"}}, "geometry": {"type": "Point", "coordinates": [28.458190803592686, 82.06659113538777]}}]}